[{"OBJECT_NAME":"STARLINK-35897","OBJECT_ID":"2025-263S","EPOCH":"2026-03-09T04:48:41.635296","MEAN_MOTION":15.2760485,"ECCENTRICITY":0.00016606,"INCLINATION":42.9993,"RA_OF_ASC_NODE":353.503,"ARG_OF_PERICENTER":284.9559,"MEAN_ANOMALY":75.1109,"EPHEMERIS_TYPE":0,"CLASSIFICATION_TYPE":"U","NORAD_CAT_ID":66501,"ELEMENT_SET_NO":999,"REV_AT_EPOCH":1882,"BSTAR":0.0013319962,"MEAN_MOTION_DOT":0.00036602,"MEAN_MOTION_DDOT":0},{"OBJECT_NAME":"CZ-4C R\/B","OBJECT_ID":"2021-079B","EPOCH":"2026-03-09T14:04:29.438112","MEAN_MOTION":15.08928015,"ECCENTRICITY":0.0108377,"INCLINATION":98.3883,"RA_OF_ASC_NODE":282.6111,"ARG_OF_PERICENTER":26.1585,"MEAN_ANOMALY":334.506,"EPHEMERIS_TYPE":0,"CLASSIFICATION_TYPE":"U","NORAD_CAT_ID":49123,"ELEMENT_SET_NO":999,"REV_AT_EPOCH":24640,"BSTAR":0.00023549,"MEAN_MOTION_DOT":4.178e-5,"MEAN_MOTION_DDOT":0}]
